ALOS (DAICHI)           
1 28931U 06002A   26066.80101169  .00002195  00000+0  37597-3 0  9997
2 28931  98.1218  22.7660 0001000  56.3663 303.7638 14.69803958 73202
H-2A R/B                
1 28932U 06002B   26066.36560474  .00014763  00000+0  73820-3 0  9990
2 28932  98.2406 213.1891 0051989 249.0451 110.5212 15.16358111 94082
RESURS-DK 1             
1 29228U 06021A   26066.68399069  .00004377  00000+0  25527-3 0  9996
2 29228  69.9312 242.2113 0002092 163.4138 196.7096 15.12726851 87224
CZ-4B R/B               
1 29507U 06046C   26067.09199634  .00006701  00000+0  33939-3 0  9994
2 29507  97.5591 112.0047 0031661 273.1606  86.6004 15.16885269 59805
CZ-2C R/B               
1 31114U 07010B   26066.75328617  .00000188  00000+0  10573-3 0  9992
2 31114  98.3978 180.1291 0057951 300.3427  59.2027 14.20245450979449
COSMO-SKYMED 1          
1 31598U 07023A   26067.19349620  .00005399  00000+0  48012-3 0  9996
2 31598  97.8867 258.2134 0001091 101.0911 259.0433 14.96521130 14689
COSMOS 2428             
1 31792U 07029A   26066.76484512  .00000077  00000+0  66818-4 0  9993
2 31792  70.9429 207.3829 0009031 278.8603  81.1495 14.12945688963827
SL-16 R/B               
1 31793U 07029B   26066.73479862 -.00000023  00000+0  12695-4 0  9999
2 31793  70.9759 176.4937 0002338 276.5468 192.1164 14.14833244965090
KORONAS-FOTON           
1 33504U 09003A   26067.07850519  .00016920  00000+0  37848-3 0  9993
2 33504  82.4273 277.5532 0011195 155.0256 205.1535 15.43282532945492
CZ-2C R/B               
1 37731U 11030B   26067.11626884  .00002679  00000+0  34287-3 0  9993
2 37731  97.8549  24.4110 0052564 357.1987  13.4016 14.81216488789865
H-2A R/B                
1 38341U 12025E   26067.18936923  .00006488  00000+0  58604-3 0  9992
2 38341  98.4740  34.1154 0043420 319.5111  40.2879 14.95154751747993
SHIJIAN-16 (SJ-16)      
1 39358U 13057A   26067.22121704  .00007815  00000+0  76450-3 0  9999
2 39358  74.9736 187.8669 0015465 116.5498 243.7278 14.92345313671288
SL-4 R/B                
1 39679U 14021B   26067.13559960  .00020688  00000+0  45294-3 0  9991
2 39679  51.6079 344.8596 0097712  97.3557 263.8544 15.39121305656037
ALOS-2                  
1 39766U 14029A   26067.23092845  .00001859  00000+0  25559-3 0  9992
2 39766  97.9195 165.8487 0001497  98.0802 262.0579 14.79496547636653
YAOGAN-29               
1 41038U 15069A   26067.17514691  .00001062  00000+0  13741-3 0  9999
2 41038  98.0142  95.6005 0002013  40.8762 319.2602 14.82995155555658
ASTRO-H (HITOMI)        
1 41337U 16012A   26067.11373107  .00004900  00000+0  28836-3 0  9994
2 41337  31.0009   6.7171 0009920 315.2979  44.6859 15.09993316551992
HXMT (HUIYAN)           
1 42758U 17034A   26067.19788640  .00009194  00000+0  45622-3 0  9999
2 42758  43.0154  24.9665 0032750 226.9133 132.8973 15.17438537482315
