[{"OBJECT_NAME":"ALOS (DAICHI)","OBJECT_ID":"2006-002A","EPOCH":"2026-03-07T19:13:27.410016","MEAN_MOTION":14.69803958,"ECCENTRICITY":0.0001,"INCLINATION":98.1218,"RA_OF_ASC_NODE":22.766,"ARG_OF_PERICENTER":56.3663,"MEAN_ANOMALY":303.7638,"EPHEMERIS_TYPE":0,"CLASSIFICATION_TYPE":"U","NORAD_CAT_ID":28931,"ELEMENT_SET_NO":999,"REV_AT_EPOCH":7320,"BSTAR":0.00037596746,"MEAN_MOTION_DOT":2.195e-5,"MEAN_MOTION_DDOT":0},{"OBJECT_NAME":"H-2A R/B","OBJECT_ID":"2006-002B","EPOCH":"2026-03-07T08:46:28.249536","MEAN_MOTION":15.16358111,"ECCENTRICITY":0.00519892,"INCLINATION":98.2406,"RA_OF_ASC_NODE":213.1891,"ARG_OF_PERICENTER":249.0451,"MEAN_ANOMALY":110.5212,"EPHEMERIS_TYPE":0,"CLASSIFICATION_TYPE":"U","NORAD_CAT_ID":28932,"ELEMENT_SET_NO":999,"REV_AT_EPOCH":9408,"BSTAR":0.00073819671,"MEAN_MOTION_DOT":0.00014763,"MEAN_MOTION_DDOT":0},{"OBJECT_NAME":"RESURS-DK 1","OBJECT_ID":"2006-021A","EPOCH":"2026-03-07T16:24:56.795616","MEAN_MOTION":15.12726851,"ECCENTRICITY":0.00020927,"INCLINATION":69.9312,"RA_OF_ASC_NODE":242.2113,"ARG_OF_PERICENTER":163.4138,"MEAN_ANOMALY":196.7096,"EPHEMERIS_TYPE":0,"CLASSIFICATION_TYPE":"U","NORAD_CAT_ID":29228,"ELEMENT_SET_NO":999,"REV_AT_EPOCH":8722,"BSTAR":0.00025527479,"MEAN_MOTION_DOT":4.377e-5,"MEAN_MOTION_DDOT":0},{"OBJECT_NAME":"CZ-4B R/B","OBJECT_ID":"2006-046C","EPOCH":"2026-03-08T02:12:28.483776","MEAN_MOTION":15.16885269,"ECCENTRICITY":0.0031661,"INCLINATION":97.5591,"RA_OF_ASC_NODE":112.0047,"ARG_OF_PERICENTER":273.1606,"MEAN_ANOMALY":86.6004,"EPHEMERIS_TYPE":0,"CLASSIFICATION_TYPE":"U","NORAD_CAT_ID":29507,"ELEMENT_SET_NO":999,"REV_AT_EPOCH":5980,"BSTAR":0.00033939,"MEAN_MOTION_DOT":6.701e-5,"MEAN_MOTION_DDOT":0},{"OBJECT_NAME":"CZ-2C R/B","OBJECT_ID":"2007-010B","EPOCH":"2026-03-07T18:04:43.925088","MEAN_MOTION":14.2024545,"ECCENTRICITY":0.0057951,"INCLINATION":98.3978,"RA_OF_ASC_NODE":180.1291,"ARG_OF_PERICENTER":300.3427,"MEAN_ANOMALY":59.2027,"EPHEMERIS_TYPE":0,"CLASSIFICATION_TYPE":"U","NORAD_CAT_ID":31114,"ELEMENT_SET_NO":999,"REV_AT_EPOCH":97944,"BSTAR":0.000105727,"MEAN_MOTION_DOT":1.88e-6,"MEAN_MOTION_DDOT":0},{"OBJECT_NAME":"COSMO-SKYMED 1","OBJECT_ID":"2007-023A","EPOCH":"2026-03-08T04:38:38.071680","MEAN_MOTION":14.9652113,"ECCENTRICITY":0.0001091,"INCLINATION":97.8867,"RA_OF_ASC_NODE":258.2134,"ARG_OF_PERICENTER":101.0911,"MEAN_ANOMALY":259.0433,"EPHEMERIS_TYPE":0,"CLASSIFICATION_TYPE":"U","NORAD_CAT_ID":31598,"ELEMENT_SET_NO":999,"REV_AT_EPOCH":1468,"BSTAR":0.00048012,"MEAN_MOTION_DOT":5.399e-5,"MEAN_MOTION_DDOT":0},{"OBJECT_NAME":"COSMOS 2428","OBJECT_ID":"2007-029A","EPOCH":"2026-03-07T18:21:22.618368","MEAN_MOTION":14.12945688,"ECCENTRICITY":0.0009031,"INCLINATION":70.9429,"RA_OF_ASC_NODE":207.3829,"ARG_OF_PERICENTER":278.8603,"MEAN_ANOMALY":81.1495,"EPHEMERIS_TYPE":0,"CLASSIFICATION_TYPE":"U","NORAD_CAT_ID":31792,"ELEMENT_SET_NO":999,"REV_AT_EPOCH":96382,"BSTAR":6.6818018e-5,"MEAN_MOTION_DOT":7.7e-7,"MEAN_MOTION_DDOT":0},{"OBJECT_NAME":"SL-16 R/B","OBJECT_ID":"2007-029B","EPOCH":"2026-03-07T17:38:06.600768","MEAN_MOTION":14.14833244,"ECCENTRICITY":0.00023385,"INCLINATION":70.9759,"RA_OF_ASC_NODE":176.4937,"ARG_OF_PERICENTER":276.5468,"MEAN_ANOMALY":192.1164,"EPHEMERIS_TYPE":0,"CLASSIFICATION_TYPE":"U","NORAD_CAT_ID":31793,"ELEMENT_SET_NO":999,"REV_AT_EPOCH":96509,"BSTAR":1.2695452e-5,"MEAN_MOTION_DOT":-2.3e-7,"MEAN_MOTION_DDOT":0},{"OBJECT_NAME":"KORONAS-FOTON","OBJECT_ID":"2009-003A","EPOCH":"2026-03-08T01:53:02.848416","MEAN_MOTION":15.43282532,"ECCENTRICITY":0.0011195,"INCLINATION":82.4273,"RA_OF_ASC_NODE":277.5532,"ARG_OF_PERICENTER":155.0256,"MEAN_ANOMALY":205.1535,"EPHEMERIS_TYPE":0,"CLASSIFICATION_TYPE":"U","NORAD_CAT_ID":33504,"ELEMENT_SET_NO":999,"REV_AT_EPOCH":94549,"BSTAR":0.00037848,"MEAN_MOTION_DOT":0.0001692,"MEAN_MOTION_DDOT":0},{"OBJECT_NAME":"CZ-2C R/B","OBJECT_ID":"2011-030B","EPOCH":"2026-03-08T02:47:25.627776","MEAN_MOTION":14.81216488,"ECCENTRICITY":0.0052564,"INCLINATION":97.8549,"RA_OF_ASC_NODE":24.411,"ARG_OF_PERICENTER":357.1987,"MEAN_ANOMALY":13.4016,"EPHEMERIS_TYPE":0,"CLASSIFICATION_TYPE":"U","NORAD_CAT_ID":37731,"ELEMENT_SET_NO":999,"REV_AT_EPOCH":78986,"BSTAR":0.00034287,"MEAN_MOTION_DOT":2.679e-5,"MEAN_MOTION_DDOT":0},{"OBJECT_NAME":"H-2A R/B","OBJECT_ID":"2012-025E","EPOCH":"2026-03-08T04:32:41.501472","MEAN_MOTION":14.95154751,"ECCENTRICITY":0.004342,"INCLINATION":98.474,"RA_OF_ASC_NODE":34.1154,"ARG_OF_PERICENTER":319.5111,"MEAN_ANOMALY":40.2879,"EPHEMERIS_TYPE":0,"CLASSIFICATION_TYPE":"U","NORAD_CAT_ID":38341,"ELEMENT_SET_NO":999,"REV_AT_EPOCH":74799,"BSTAR":0.00058604,"MEAN_MOTION_DOT":6.488e-5,"MEAN_MOTION_DDOT":0},{"OBJECT_NAME":"SHIJIAN-16 (SJ-16)","OBJECT_ID":"2013-057A","EPOCH":"2026-03-08T05:18:33.152256","MEAN_MOTION":14.92345313,"ECCENTRICITY":0.0015465,"INCLINATION":74.9736,"RA_OF_ASC_NODE":187.8669,"ARG_OF_PERICENTER":116.5498,"MEAN_ANOMALY":243.7278,"EPHEMERIS_TYPE":0,"CLASSIFICATION_TYPE":"U","NORAD_CAT_ID":39358,"ELEMENT_SET_NO":999,"REV_AT_EPOCH":67128,"BSTAR":0.0007645,"MEAN_MOTION_DOT":7.815e-5,"MEAN_MOTION_DDOT":0},{"OBJECT_NAME":"SL-4 R/B","OBJECT_ID":"2014-021B","EPOCH":"2026-03-08T03:15:15.805440","MEAN_MOTION":15.39121305,"ECCENTRICITY":0.0097712,"INCLINATION":51.6079,"RA_OF_ASC_NODE":344.8596,"ARG_OF_PERICENTER":97.3557,"MEAN_ANOMALY":263.8544,"EPHEMERIS_TYPE":0,"CLASSIFICATION_TYPE":"U","NORAD_CAT_ID":39679,"ELEMENT_SET_NO":999,"REV_AT_EPOCH":65603,"BSTAR":0.00045294,"MEAN_MOTION_DOT":0.00020688,"MEAN_MOTION_DDOT":0},{"OBJECT_NAME":"ALOS-2","OBJECT_ID":"2014-029A","EPOCH":"2026-03-08T05:32:32.218080","MEAN_MOTION":14.79496547,"ECCENTRICITY":0.0001497,"INCLINATION":97.9195,"RA_OF_ASC_NODE":165.8487,"ARG_OF_PERICENTER":98.0802,"MEAN_ANOMALY":262.0579,"EPHEMERIS_TYPE":0,"CLASSIFICATION_TYPE":"U","NORAD_CAT_ID":39766,"ELEMENT_SET_NO":999,"REV_AT_EPOCH":63665,"BSTAR":0.00025559,"MEAN_MOTION_DOT":1.859e-5,"MEAN_MOTION_DDOT":0},{"OBJECT_NAME":"YAOGAN-29","OBJECT_ID":"2015-069A","EPOCH":"2026-03-08T04:12:12.693024","MEAN_MOTION":14.82995155,"ECCENTRICITY":0.0002013,"INCLINATION":98.0142,"RA_OF_ASC_NODE":95.6005,"ARG_OF_PERICENTER":40.8762,"MEAN_ANOMALY":319.2602,"EPHEMERIS_TYPE":0,"CLASSIFICATION_TYPE":"U","NORAD_CAT_ID":41038,"ELEMENT_SET_NO":999,"REV_AT_EPOCH":55565,"BSTAR":0.00013741,"MEAN_MOTION_DOT":1.062e-5,"MEAN_MOTION_DDOT":0},{"OBJECT_NAME":"ASTRO-H (HITOMI)","OBJECT_ID":"2016-012A","EPOCH":"2026-03-08T02:43:46.364448","MEAN_MOTION":15.09993316,"ECCENTRICITY":0.000992,"INCLINATION":31.0009,"RA_OF_ASC_NODE":6.7171,"ARG_OF_PERICENTER":315.2979,"MEAN_ANOMALY":44.6859,"EPHEMERIS_TYPE":0,"CLASSIFICATION_TYPE":"U","NORAD_CAT_ID":41337,"ELEMENT_SET_NO":999,"REV_AT_EPOCH":55199,"BSTAR":0.00028836,"MEAN_MOTION_DOT":4.9e-5,"MEAN_MOTION_DDOT":0},{"OBJECT_NAME":"HXMT (HUIYAN)","OBJECT_ID":"2017-034A","EPOCH":"2026-03-08T04:44:57.384960","MEAN_MOTION":15.17438537,"ECCENTRICITY":0.003275,"INCLINATION":43.0154,"RA_OF_ASC_NODE":24.9665,"ARG_OF_PERICENTER":226.9133,"MEAN_ANOMALY":132.8973,"EPHEMERIS_TYPE":0,"CLASSIFICATION_TYPE":"U","NORAD_CAT_ID":42758,"ELEMENT_SET_NO":999,"REV_AT_EPOCH":48231,"BSTAR":0.00045622,"MEAN_MOTION_DOT":9.194e-5,"MEAN_MOTION_DDOT":0}]
